Satellite: SICH-1
Catalog number: 23657
Epoch time:      06292.70012173
Element set:     883
Inclination:      082.5261 deg
RA of node:       301.7775 deg
Eccentricity:    0.0022882
Arg of perigee:   317.1242 deg
Mean anomaly:     042.8178 deg
Mean motion:   14.81401259 rev/day
Decay rate:       2.73e-06 rev/day^2
Epoch rev:           60042
Checksum:              278

Satellite: NOAA-15
Catalog number: 25338
Epoch time:      06292.41033541
Element set:     708
Inclination:      098.5229 deg
RA of node:       291.0330 deg
Eccentricity:    0.0010956
Arg of perigee:   016.3916 deg
Mean anomaly:     343.7652 deg
Mean motion:   14.24606913 rev/day
Decay rate:        1.7e-07 rev/day^2
Epoch rev:           43840
Checksum:              286

Satellite: RESURS
Catalog number: 25394
Epoch time:      06291.80029099
Element set:     483
Inclination:      098.4796 deg
RA of node:       350.4317 deg
Eccentricity:    0.0001476
Arg of perigee:   140.2301 deg
Mean anomaly:     219.8986 deg
Mean motion:   14.24114403 rev/day
Decay rate:       -1.4e-07 rev/day^2
Epoch rev:           42999
Checksum:              304

Satellite: FENGYUN1
Catalog number: 25730
Epoch time:      06291.86184358
Element set:     851
Inclination:      098.6374 deg
RA of node:       279.7939 deg
Eccentricity:    0.0014739
Arg of perigee:   145.6656 deg
Mean anomaly:     214.5470 deg
Mean motion:   14.11817387 rev/day
Decay rate:       -6.0e-08 rev/day^2
Epoch rev:           38346
Checksum:              339

Satellite: OKEAN-0
Catalog number: 25860
Epoch time:      06292.62631404
Element set:     880
Inclination:      097.7333 deg
RA of node:       301.1604 deg
Eccentricity:    0.0001911
Arg of perigee:   073.9271 deg
Mean anomaly:     286.2152 deg
Mean motion:   14.73396448 rev/day
Decay rate:        8.1e-07 rev/day^2
Epoch rev:           39007
Checksum:              284

Satellite: NOAA-16
Catalog number: 26536
Epoch time:      06292.40336277
Element set:      94
Inclination:      099.0842 deg
RA of node:       260.5776 deg
Eccentricity:    0.0010998
Arg of perigee:   128.0869 deg
Mean anomaly:     232.1320 deg
Mean motion:   14.12377626 rev/day
Decay rate:       3.54e-06 rev/day^2
Epoch rev:           31311
Checksum:              302

Satellite: NOAA-17
Catalog number: 27453
Epoch time:      06292.20539034
Element set:     113
Inclination:      098.6105 deg
RA of node:       001.9390 deg
Eccentricity:    0.0012542
Arg of perigee:   076.8337 deg
Mean anomaly:     283.4247 deg
Mean motion:   14.23818070 rev/day
Decay rate:       -6.0e-08 rev/day^2
Epoch rev:           22442
Checksum:              275

Satellite: NOAA-18
Catalog number: 28654
Epoch time:      06292.23240211
Element set:     681
Inclination:      098.7985 deg
RA of node:       232.9087 deg
Eccentricity:    0.0013574
Arg of perigee:   229.6951 deg
Mean anomaly:     130.3035 deg
Mean motion:   14.11001472 rev/day
Decay rate:        9.5e-07 rev/day^2
Epoch rev:            7287
Checksum:              299

/EX
SB KEPS @ AMSAT  $ORB06292.M
Orbital Elements  06292.MISC

HR AMSAT ORBITAL ELEMENTS FOR MANNED AND MISCELLANEOUS SATELLITES
FROM WA5QGD FORT WORTH,TX October 19, 2006
Send SUBSCRIBE KEPS/UNSUBSCRIBE KEPS to majordomo at amsat.org only
BID: ORB06292.M
TO ALL RADIO AMATEURS BT

Satellite: HUBBLE
Catalog number: 20580
Epoch time:      06291.44675594
Element set:    0738
Inclination:      028.4698 deg
RA of node:       326.3355 deg
Eccentricity:    0.0003549
Arg of perigee:   057.0627 deg
Mean anomaly:     303.0301 deg
Mean motion:   15.00112190 rev/day
Decay rate:       4.94e-06 rev/day^2
Epoch rev:           70362
Checksum:              281

Satellite: UARS
Catalog number: 21701
Epoch time:      06291.95279806
Element set:    0900
Inclination:      056.9748 deg
RA of node:       278.5038 deg
Eccentricity:    0.0106729
Arg of perigee:   087.7215 deg
Mean anomaly:     273.6055 deg
Mean motion:   15.44979132 rev/day
Decay rate:      5.928e-05 rev/day^2
Epoch rev:           82842
Checksum:              340

Satellite: PO-34
Catalog number: 25520
Epoch time:      06291.78578650
Element set:    0601
Inclination:      028.4612 deg
RA of node:       284.2083 deg
Eccentricity:    0.0005749
Arg of perigee:   145.1129 deg
Mean anomaly:     214.9883 deg
Mean motion:   15.16816277 rev/day
Decay rate:       7.68e-06 rev/day^2
Epoch rev:           44083
Checksum:              319

Satellite: ISS
Catalog number: 25544
Epoch time:      06292.81391638
Element set:     892
Inclination:      051.6323 deg
RA of node:       265.3662 deg
Eccentricity:    0.0012929
Arg of perigee:   115.4170 deg
Mean anomaly:     244.8700 deg
Mean motion:   15.77013746 rev/day
Decay rate:     1.5551e-04 rev/day^2
Epoch rev:           45282
Checksum:              300

Satellite: OO-38
Catalog number: 26063
Epoch time:      06292.75384495
Element set:     744
Inclination:      100.1990 deg
RA of node:       246.2668 deg
Eccentricity:    0.0037194
Arg of perigee:   116.2060 deg
Mean anomaly:     244.2947 deg
Mean motion:   14.35780879 rev/day
Decay rate:        1.1e-07 rev/day^2
Epoch rev:           35254
Checksum:              317

Satellite: NO-45
Catalog number: 26932
Epoch time:      06292.83051682
Element set:     436
Inclination:      067.0512 deg
RA of node:       046.3448 deg
Eccentricity:    0.0005510
Arg of perigee:   233.8605 deg
Mean anomaly:     126.1986 deg
Mean motion:   14.29537271 rev/day
Decay rate:       -5.2e-07 rev/day^2
Epoch rev:           26378
Checksum:              303

Satellite: UWE-1
Catalog number: 28892
Epoch time:      06291.26685415
Element set:    0581
Inclination:      098.1493 deg
RA of node:       187.3956 deg
Eccentricity:    0.0017961
Arg of perigee:   144.3736 deg
Mean anomaly:     215.8660 deg
Mean motion:   14.59407456 rev/day
Decay rate:       1.74e-06 rev/day^2
Epoch rev:           05192
Checksum:              336

Satellite: CO-58
Catalog number: 28895
Epoch time:      06291.25369421
Element set:    0564
Inclination:      098.1508 deg
RA of node:       187.5059 deg
Eccentricity:    0.0018166
Arg of perigee:   144.2773 deg
Mean anomaly:     215.9642 deg
Mean motion:   14.59457764 rev/day
Decay rate:       2.29e-06 rev/day^2
Epoch rev:           05180
Checksum:              344

